[{"OBJECT_NAME":"STARLINK-2109","OBJECT_ID":"2021-005AR","EPOCH":"2026-03-09T05:01:53.045472","MEAN_MOTION":15.06406237,"ECCENTRICITY":0.00014412,"INCLINATION":53.0555,"RA_OF_ASC_NODE":63.7741,"ARG_OF_PERICENTER":86.6518,"MEAN_ANOMALY":273.4636,"EPHEMERIS_TYPE":0,"CLASSIFICATION_TYPE":"U","NORAD_CAT_ID":47388,"ELEMENT_SET_NO":999,"REV_AT_EPOCH":28296,"BSTAR":6.7896725e-5,"MEAN_MOTION_DOT":7.3e-6,"MEAN_MOTION_DDOT":0},{"OBJECT_NAME":"CZ-2D DEB","OBJECT_ID":"2017-060C","EPOCH":"2026-03-09T12:36:22.356864","MEAN_MOTION":15.07716497,"ECCENTRICITY":0.0018685,"INCLINATION":98.2453,"RA_OF_ASC_NODE":267.9231,"ARG_OF_PERICENTER":71.2095,"MEAN_ANOMALY":289.1156,"EPHEMERIS_TYPE":0,"CLASSIFICATION_TYPE":"U","NORAD_CAT_ID":44610,"ELEMENT_SET_NO":999,"REV_AT_EPOCH":45422,"BSTAR":0.00057216024,"MEAN_MOTION_DOT":8.702e-5,"MEAN_MOTION_DDOT":0}]
